STARLINK-2705           
1 48672U 21044AL  25204.32664721  .00000245  00000+0  35356-4 0  9998
2 48672  53.0558  61.2664 0001519  89.9657 270.1506 15.06399203229271
STARLINK-2711           
1 48673U 21044AM  25204.32295612 -.00001187  00000+0 -60827-4 0  9997
2 48673  53.0561  61.2841 0001407  86.6106 273.5044 15.06402808229272
STARLINK-2712           
1 48674U 21044AN  25203.99860760  .00000348  00000+0  42262-4 0  9991
2 48674  53.0558  62.8561 0001379  84.7080 275.4066 15.06401477229224
STARLINK-2746           
1 48676U 21044AQ  25204.31189453  .00000247  00000+0  35452-4 0  9994
2 48676  53.0546  61.3337 0001304  92.7062 267.4077 15.06402606229278
STARLINK-2615           
1 48678U 21044AS  25204.30452931  .00000154  00000+0  29215-4 0  9996
2 48678  53.0557  61.3643 0001357  84.8693 275.2451 15.06399292229271
STARLINK-2648           
1 48679U 21044AT  25204.30083900  .00000751  00000+0  69274-4 0  9995
2 48679  53.0545  61.3854 0001329  88.7923 271.3218 15.06403553229275
STARLINK-2725           
1 48681U 21044AV  25204.22991750  .00000436  00000+0  48167-4 0  9998
2 48681  53.0553  31.9425 0001461  84.2757 275.8399 15.06398009229679
STARLINK-2743           
1 48682U 21044AW  25204.62524108  .00020320  00000+0  13773-2 0  9999
2 48682  53.0566  20.0905 0001181  99.7667 260.3456 15.06448697229870
STARLINK-2756           
1 48683U 21044AX  25204.51463294  .00000174  00000+0  30579-4 0  9996
2 48683  53.0561  20.4355 0001819  84.7913 275.3283 15.06397439229865
STARLINK-2741           
1 48684U 21044AY  25204.53724564  .00001055  00000+0  89753-4 0  9996
2 48684  53.0557  35.6788 0001398  86.3133 273.8016 15.06389625229655
STARLINK-2751           
1 48685U 21044AZ  25203.82167675  .00002491  00000+0  18610-3 0  9990
2 48685  53.0564  23.5832 0001355  89.6665 270.4479 15.06390817229762
STARLINK-2629           
1 48686U 21044BA  25204.47918693  .00001405  00000+0  11319-3 0  9990
2 48686  53.0554  25.8638 0001344 100.4159 259.6982 15.06394985229789
STARLINK-2627           
1 48687U 21044BB  25204.18888619  .00001075  00000+0  91080-4 0  9990
2 48687  53.0558  16.8881 0001557  81.5731 278.5435 15.06394082229887
STARLINK-2742           
1 48688U 21044BC  25204.19256907  .00000224  00000+0  33911-4 0  9995
2 48688  53.0560  16.8697 0001176  88.6922 271.4202 15.06396434229880
STARLINK-2740           
1 48690U 21044BE  25204.53581096  .00001059  00000+0  89995-4 0  9996
2 48690  53.0563  30.3279 0001735  94.1933 265.9254 15.06399505229728
STARLINK-2750           
1 48691U 21044BF  25204.50864105  .00001391  00000+0  11227-3 0  9990
2 48691  53.0557  25.4500 0001313  85.9864 274.1275 15.06394986229797
STARLINK-2752           
1 48692U 21044BG  25204.49391440  .00001523  00000+0  12113-3 0  9998
2 48692  53.0557  25.6411 0001256  88.5585 271.5547 15.06394309229798
STARLINK-2618           
1 48693U 21044BH  25204.50170583  .00001336  00000+0  10857-3 0  9999
2 48693  53.0561  30.4838 0001309  90.0564 270.0575 15.06393853229726
STARLINK-2748           
1 48694U 21044BJ  25204.27086777  .00001343  00000+0  10900-3 0  9992
2 48694  53.0549  36.5074 0001316  87.8909 272.2231 15.06401075229614
STARLINK-2616           
1 48695U 21044BK  25204.49297875 -.00000611  00000+0 -22126-4 0  9993
2 48695  53.0562  35.5723 0001364  94.9369 265.1776 15.06391976229659
STARLINK-2753           
1 48696U 21044BL  25204.54964201 -.00003323  00000+0 -20432-3 0  9994
2 48696  53.0559  40.3183 0001228  90.3566 269.7564 15.06399638230434
ONEWEB-0211             
1 48767U 21045A   25204.61856378  .00000033  00000+0  53889-4 0  9993
2 48767  87.9077 324.6584 0002142  91.9005 268.2371 13.16082937201223
ONEWEB-0223             
1 48768U 21045B   25204.62559926  .00000163  00000+0  40006-3 0  9994
2 48768  87.9081 324.7051 0002308  90.4162 269.7233 13.15547396201206
ONEWEB-0230             
1 48769U 21045C   25204.59708986 -.00000062  00000+0 -19920-3 0  9994
2 48769  87.9063 324.7471 0001958 103.0773 257.0576 13.15547930201464
ONEWEB-0237             
1 48770U 21045D   25204.35782103 -.00000027  00000+0 -10595-3 0  9993
2 48770  87.9087 324.7790 0002198  94.5302 265.6079 13.15547927201150
ONEWEB-0235             
1 48771U 21045E   25204.56065121  .00000211  00000+0  52536-3 0  9995
2 48771  87.9082 324.7165 0002473  93.0771 267.0642 13.15549574201176
ONEWEB-0242             
1 48772U 21045F   25204.40219166  .00000100  00000+0  23236-3 0  9991
2 48772  87.9079 324.7331 0002119  99.5769 260.5601 13.15549416201193
ONEWEB-0241             
1 48773U 21045G   25204.61768781  .00000131  00000+0  31416-3 0  9990
2 48773  87.9063 324.7453 0002050  86.4438 273.6926 13.15549382201135
ONEWEB-0243             
1 48774U 21045H   25204.57330673  .00000063  00000+0  13238-3 0  9997
2 48774  87.9090 324.7462 0002366  95.5903 264.5497 13.15547456202283
ONEWEB-0222             
1 48775U 21045J   25204.63274752  .00000184  00000+0  45603-3 0  9995
2 48775  87.9077 324.6912 0001977  93.9268 266.2089 13.15548669201205
ONEWEB-0244             
1 48776U 21045K   25204.58281401 -.00000008  00000+0 -55853-4 0  9995
2 48776  87.9076 324.6811 0002098 101.2057 258.9309 13.15547538202889
ONEWEB-0247             
1 48777U 21045L   25204.57964567  .00000038  00000+0  67118-4 0  9994
2 48777  87.9085 324.7540 0002869  91.4300 268.7159 13.15547865202332
ONEWEB-0245             
1 48778U 21045M   25204.57488944  .00000062  00000+0  13022-3 0  9996
2 48778  87.9079 324.7190 0001914  91.9563 268.1786 13.15547754202307
ONEWEB-0229             
1 48779U 21045N   25204.57014268  .00000039  00000+0  68492-4 0  9997
2 48779  87.9080 324.7188 0002089  99.9092 260.2274 13.15549791201202
ONEWEB-0228             
1 48780U 21045P   25204.60355476 -.00000078  00000+0 -23993-3 0  9993
2 48780  87.9077 324.6862 0002048  97.1218 263.0145 13.15547075201125
ONEWEB-0232             
1 48781U 21045Q   25204.57808189 -.00000036  00000+0 -12922-3 0  9998
2 48781  87.9072 324.6861 0001950  98.6377 261.4974 13.15548942202568
ONEWEB-0231             
1 48782U 21045R   25204.63194669  .00000208  00000+0  51861-3 0  9991
2 48782  87.9066 324.7296 0002186  95.8095 264.3285 13.15549567201147
ONEWEB-0234             
1 48783U 21045S   25204.36512185  .00012115  00000+0  32287-1 0  9998
2 48783  87.9074 324.7497 0001128  81.0235 279.1022 13.15163862201242
ONEWEB-0238             
1 48784U 21045T   25204.59403429  .00000125  00000+0  29851-3 0  9997
2 48784  87.9067 324.7012 0000968  95.5177 264.6064 13.15551367201172
ONEWEB-0240             
1 48785U 21045U   25204.61531731  .00000109  00000+0  25428-3 0  9997
2 48785  87.9075 324.6779 0002014  87.8208 272.3153 13.15549591201209
ONEWEB-0246             
1 48786U 21045V   25204.60976256  .00000035  00000+0  60181-4 0  9996
2 48786  87.9078 324.6902 0002073 100.2798 259.8566 13.15550232201077
ONEWEB-0210             
1 48787U 21045W   25204.58439579 -.00000028  00000+0 -10951-3 0  9999
2 48787  87.9078 324.6948 0002638  98.5435 261.5994 13.15547548201118
ONEWEB-0214             
1 48788U 21045X   25204.59377306 -.00000083  00000+0 -25552-3 0  9994
2 48788  87.9076 324.6821 0002374 102.7087 257.4308 13.15547550201087
ONEWEB-0221             
1 48789U 21045Y   25204.60026800 -.00000031  00000+0 -11660-3 0  9995
2 48789  87.9075 324.7102 0002130  94.2031 265.9343 13.15549635201173
ONEWEB-0213             
1 48790U 21045Z   25204.58914922 -.00000108  00000+0 -32013-3 0  9995
2 48790  87.9079 324.7188 0002175  96.0402 264.0976 13.15547362201238
ONEWEB-0212             
1 48791U 21045AA  25204.41408090  .00000143  00000+0  34523-3 0  9997
2 48791  87.9074 324.7362 0001856  97.4829 262.6512 13.15549179201206
ONEWEB-0227             
1 48792U 21045AB  25204.56538257  .00000136  00000+0  32650-3 0  9994
2 48792  87.9079 324.7255 0002020  95.6898 264.4463 13.15548104201171
ONEWEB-0226             
1 48793U 21045AC  25204.33088477  .00000159  00000+0  38783-3 0  9992
2 48793  87.9081 324.7761 0002292  98.1770 261.9620 13.15549299201112
ONEWEB-0224             
1 48794U 21045AD  25204.59866548  .00000010  00000+0 -68847-5 0  9997
2 48794  87.9075 324.7605 0001887  69.2227 290.9105 13.15547152201079
ONEWEB-0233             
1 48795U 21045AE  25204.60327772  .00000034  00000+0  57377-4 0  9991
2 48795  87.9082 324.7674 0002149  90.7015 269.4361 13.15550462201095
ONEWEB-0190             
1 48796U 21045AF  25204.59073818 -.00000082  00000+0 -25200-3 0  9993
2 48796  87.9083 324.7345 0002643  88.9290 271.2144 13.15546705201168
ONEWEB-0236             
1 48797U 21045AG  25204.37998668  .00000013  00000+0 -29188-6 0  9994
2 48797  87.9086 324.7853 0001772  96.5543 263.5789 13.15546696201027
ONEWEB-0248             
1 48798U 21045AH  25204.62085630  .00000044  00000+0  83661-4 0  9996
2 48798  87.9079 324.6928 0002177  81.1139 279.0238 13.15549663201212
ONEWEB-0225             
1 48799U 21045AJ  25204.56694975  .00001912  00000+0  50416-2 0  9993
2 48799  87.9084 324.7346 0002594  90.4409 269.7019 13.15568369201217
ONEWEB-0215             
1 48800U 21045AK  25204.61292030 -.00000015  00000+0 -72793-4 0  9997
2 48800  87.9076 324.6767 0002401  84.3921 275.7483 13.15547277201098
ONEWEB-0216             
1 48801U 21045AL  25204.62242582  .00000149  00000+0  36209-3 0  9993
2 48801  87.9077 324.7208 0002101 102.6737 257.4628 13.15547884201101
ONEWEB-0239             
1 48802U 21045AM  25204.62718451  .00000115  00000+0  27141-3 0  9995
2 48802  87.9088 324.7312 0002280  77.9706 282.1680 13.15547328201148
FENGYUN 4B              
1 48808U 21047A   25204.50281907 -.00000340  00000+0  00000+0 0  9993
2 48808   0.0869  76.8682 0003687 248.2310 262.1284  1.00270744 15280
SXM-8                   
1 48838U 21049A   25204.46518515 -.00000214  00000+0  00000+0 0  9991
2 48838   0.0129  37.2565 0004834   0.5424 345.9279  1.00270049 15296
